CCSDS_OMM_VERS,COMMENT,CREATION_DATE,ORIGINATOR,OBJECT_NAME,OBJECT_ID,CENTER_NAME,REF_FRAME,TIME_SYSTEM,MEAN_ELEMENT_THEORY,EPOCH,MEAN_MOTION,ECCENTRICITY,INCLINATION,RA_OF_ASC_NODE,ARG_OF_PERICENTER,MEAN_ANOMALY,EPHEMERIS_TYPE,CLASSIFICATION_TYPE,NORAD_CAT_ID,ELEMENT_SET_NO,REV_AT_EPOCH,BSTAR,MEAN_MOTION_DOT,MEAN_MOTION_DDOT,SEMIMAJOR_AXIS,PERIOD,APOAPSIS,PERIAPSIS,OBJECT_TYPE,RCS_SIZE,COUNTRY_CODE,LAUNCH_DATE,SITE,DECAY_DATE,FILE,GP_ID,TLE_LINE0,TLE_LINE1,TLE_LINE2
"2.0","GENERATED VIA SPACE-TRACK.ORG API","2020-09-13T16:56:47","18 SPCS","COSMOS 1867","1987-060A","EARTH","TEME","UTC","SGP4","2020-09-13T03:48:40.353696","14.31114190","0.00143350","65.0089","155.2711","277.9410","82.0047","0","U","18187","999","73319","-0.00000133150000","-0.00000104","0.0000000000000","7166.145","100.620","798.283","777.738","PAYLOAD","LARGE","CIS","1987-07-10","TTMTR","","2822150","161308309","0 COSMOS 1867","1 18187U 87060A   20257.15880039 -.00000104 +00000-0 -13315-5 0  9991","2 18187 065.0089 155.2711 0014335 277.9410 082.0047 14.31114190733192"
"2.0","GENERATED VIA SPACE-TRACK.ORG API","2020-09-13T06:26:10","18 SPCS","COSMOS 1867","1987-060A","EARTH","TEME","UTC","SGP4","2020-09-13T02:08:02.676768","14.31114182","0.00143370","65.0089","155.4667","277.9313","82.0144","0","U","18187","999","73341","-0.00000164630000","-0.00000105","0.0000000000000","7166.145","100.620","798.285","777.736","PAYLOAD","LARGE","CIS","1987-07-10","TTMTR","","2821373","161284202","0 COSMOS 1867","1 18187U 87060A   20257.08891987 -.00000105  00000-0 -16463-5 0  9995","2 18187  65.0089 155.4667 0014337 277.9313  82.0144 14.31114182733412"
"2.0","GENERATED VIA SPACE-TRACK.ORG API","2020-09-13T16:56:47","18 SPCS","IRIDIUM 153","2017-083J","EARTH","TEME","UTC","SGP4","2020-09-13T01:15:14.333472","14.34217959","0.00030660","86.3921","89.3669","90.0105","270.1442","0","U","43078","999","14383","0.00000651640000","0.00000038","0.0000000000000","7155.803","100.403","779.862","775.474","PAYLOAD","LARGE","US","2017-12-23","AFWTR","","2822150","161319873","0 IRIDIUM 153","1 43078U 17083J   20257.05224923 +.00000038 +00000-0 +65164-5 0  9992","2 43078 086.3921 089.3669 0003066 090.0105 270.1442 14.34217959143838"
"2.0","GENERATED VIA SPACE-TRACK.ORG API","2020-09-13T01:26:39","18 SPCS","IRIDIUM 153","2017-083J","EARTH","TEME","UTC","SGP4","2020-09-12T18:33:22.311360","14.34217916","0.00029520","86.3921","89.4836","90.2068","269.9466","0","U","43078","999","14379","0.00000003925900","0.00000020","0.0000000000000","7155.803","100.403","779.780","775.556","PAYLOAD","LARGE","US","2017-12-23","AFWTR","","2821313","161280350","0 IRIDIUM 153","1 43078U 17083J   20256.77317490 +.00000020 +00000-0 +39259-7 0  9991","2 43078 086.3921 089.4836 0002952 090.2068 269.9466 14.34217916143798"
"2.0","GENERATED VIA SPACE-TRACK.ORG API","2020-09-12T22:16:09","18 SPCS","IRIDIUM 153","2017-083J","EARTH","TEME","UTC","SGP4","2020-09-12T15:12:26.313696","14.34217918","0.00029520","86.3921","89.5420","90.3647","269.7887","0","U","43078","999","14377","-0.00000009865200","0.00000020","0.0000000000000","7155.803","100.403","779.780","775.556","PAYLOAD","LARGE","US","2017-12-23","AFWTR","","2820970","161256232","0 IRIDIUM 153","1 43078U 17083J   20256.63363789  .00000020  00000-0 -98652-7 0  9991","2 43078  86.3921  89.5420 0002952  90.3647 269.7887 14.34217918143777"
"2.0","GENERATED VIA SPACE-TRACK.ORG API","2020-09-12T18:16:15","18 SPCS","IRIDIUM 153","2017-083J","EARTH","TEME","UTC","SGP4","2020-09-12T11:51:30.318624","14.34217908","0.00029530","86.3920","89.6004","90.4936","269.6598","0","U","43078","999","14375","-0.00000055099000","0.00000018","0.0000000000000","7155.803","100.403","779.781","775.555","PAYLOAD","LARGE","US","2017-12-23","AFWTR","","2820903","161231130","0 IRIDIUM 153","1 43078U 17083J   20256.49410091 +.00000018 +00000-0 -55099-6 0  9998","2 43078 086.3920 089.6004 0002953 090.4936 269.6598 14.34217908143753"
"2.0","GENERATED VIA SPACE-TRACK.ORG API","2020-09-12T18:16:15","18 SPCS","COSMOS 1867","1987-060A","EARTH","TEME","UTC","SGP4","2020-09-12T11:02:23.574048","14.31114235","0.00143320","65.0090","157.2267","277.9123","82.0335","0","U","18187","999","73309","0.00000103370000","-0.00000097","0.0000000000000","7166.145","100.620","798.281","777.740","PAYLOAD","LARGE","CIS","1987-07-10","TTMTR","","2820903","161219566","0 COSMOS 1867","1 18187U 87060A   20256.45999507 -.00000097 +00000-0 +10337-5 0  9995","2 18187 065.0090 157.2267 0014332 277.9123 082.0335 14.31114235733099"
"2.0","GENERATED VIA SPACE-TRACK.ORG API","2020-09-12T04:36:59","18 SPCS","COSMOS 1867","1987-060A","EARTH","TEME","UTC","SGP4","2020-09-11T19:56:44.450592","14.31114360","0.00143350","65.0109","158.9871","277.8572","82.0885","0","U","18187","999","73300","-0.00000903180000","-0.00000124","0.0000000000000","7166.145","100.620","798.283","777.737","PAYLOAD","LARGE","CIS","1987-07-10","TTMTR","","2820284","161184258","0 COSMOS 1867","1 18187U 87060A   20255.83107003 -.00000124 +00000-0 -90318-5 0  9997","2 18187 065.0109 158.9871 0014335 277.8572 082.0885 14.31114360733009"
"2.0","GENERATED VIA SPACE-TRACK.ORG API","2020-09-12T04:36:59","18 SPCS","IRIDIUM 153","2017-083J","EARTH","TEME","UTC","SGP4","2020-09-11T14:05:26.333376","14.34217911","0.00029490","86.3921","89.9800","91.4271","268.7262","0","U","43078","999","14362","-0.00000087976000","0.00000017","0.0000000000000","7155.803","100.403","779.778","775.558","PAYLOAD","LARGE","US","2017-12-23","AFWTR","","2820284","161196822","0 IRIDIUM 153","1 43078U 17083J   20255.58711034 +.00000017 +00000-0 -87976-6 0  9996","2 43078 086.3921 089.9800 0002949 091.4271 268.7262 14.34217911143627"
"2.0","GENERATED VIA SPACE-TRACK.ORG API","2020-09-11T18:58:20","18 SPCS","IRIDIUM 153","2017-083J","EARTH","TEME","UTC","SGP4","2020-09-11T12:24:58.334976","14.34217908","0.00029480","86.3921","90.0092","91.4864","268.6670","0","U","43078","999","14361","-0.00000103780000","0.00000017","0.0000000000000","7155.803","100.403","779.778","775.559","PAYLOAD","LARGE","US","2017-12-23","AFWTR","","2819952","161171595","0 IRIDIUM 153","1 43078U 17083J   20255.51734184 +.00000017 +00000-0 -10378-5 0  9991","2 43078 086.3921 090.0092 0002948 091.4864 268.6670 14.34217908143617"
"2.0","GENERATED VIA SPACE-TRACK.ORG API","2020-09-11T18:58:20","18 SPCS","COSMOS 1867","1987-060A","EARTH","TEME","UTC","SGP4","2020-09-11T11:33:36.067680","14.31114363","0.00143290","65.0110","159.9650","277.8611","82.0846","0","U","18187","999","73295","-0.00000766910000","-0.00000120","0.0000000000000","7166.145","100.620","798.278","777.742","PAYLOAD","LARGE","CIS","1987-07-10","TTMTR","","2819952","161159042","0 COSMOS 1867","1 18187U 87060A   20255.48166745 -.00000120 +00000-0 -76691-5 0  9990","2 18187 065.0110 159.9650 0014329 277.8611 082.0846 14.31114363732957"
"2.0","GENERATED VIA SPACE-TRACK.ORG API","2020-09-11T22:16:09","18 SPCS","COSMOS 1867","1987-060A","EARTH","TEME","UTC","SGP4","2020-09-11T11:33:36.067680","14.31114363","0.00143290","65.0110","159.9650","277.8611","82.0846","0","U","18187","999","73318","-0.00000766910000","-0.00000120","0.0000000000000","7166.145","100.620","798.278","777.742","PAYLOAD","LARGE","CIS","1987-07-10","TTMTR","","2820029","161173937","0 COSMOS 1867","1 18187U 87060A   20255.48166745 -.00000120  00000-0 -76691-5 0  9990","2 18187  65.0110 159.9650 0014329 277.8611  82.0846 14.31114363733183"
"2.0","GENERATED VIA SPACE-TRACK.ORG API","2020-09-11T14:16:09","18 SPCS","IRIDIUM 153","2017-083J","EARTH","TEME","UTC","SGP4","2020-09-11T10:44:30.336576","14.34217903","0.00029450","86.3921","90.0384","91.5424","268.6109","0","U","43078","999","14360","-0.00000140460000","0.00000016","0.0000000000000","7155.803","100.403","779.776","775.561","PAYLOAD","LARGE","US","2017-12-23","AFWTR","","2819529","161145493","0 IRIDIUM 153","1 43078U 17083J   20255.44757334  .00000016  00000-0 -14046-5 0  9990","2 43078  86.3921  90.0384 0002945  91.5424 268.6109 14.34217903143602"
"2.0","GENERATED VIA SPACE-TRACK.ORG API","2020-09-11T04:19:45","18 SPCS","COSMOS 1867","1987-060A","EARTH","TEME","UTC","SGP4","2020-09-10T22:08:34.649664","14.31114385","0.00143200","65.0110","161.5295","277.7947","82.1512","0","U","18187","999","73287","-0.00000656280000","-0.00000118","0.0000000000000","7166.145","100.620","798.272","777.748","PAYLOAD","LARGE","CIS","1987-07-10","TTMTR","","2819141","161120339","0 COSMOS 1867","1 18187U 87060A   20254.92262326 -.00000118 +00000-0 -65628-5 0  9995","2 18187 065.0110 161.5295 0014320 277.7947 082.1512 14.31114385732879"
"2.0","GENERATED VIA SPACE-TRACK.ORG API","2020-09-11T04:19:45","18 SPCS","IRIDIUM 153","2017-083J","EARTH","TEME","UTC","SGP4","2020-09-10T14:38:54.348864","14.34217923","0.00029370","86.3921","90.3889","92.3190","267.8342","0","U","43078","999","14348","-0.00000062643000","0.00000018","0.0000000000000","7155.803","100.403","779.770","775.566","PAYLOAD","LARGE","US","2017-12-23","AFWTR","","2819141","161133773","0 IRIDIUM 153","1 43078U 17083J   20254.61035126 +.00000018 +00000-0 -62643-6 0  9995","2 43078 086.3921 090.3889 0002937 092.3190 267.8342 14.34217923143483"
"2.0","GENERATED VIA SPACE-TRACK.ORG API","2020-09-10T10:56:10","18 SPCS","COSMOS 1867","1987-060A","EARTH","TEME","UTC","SGP4","2020-09-10T05:22:17.885568","14.31114402","0.00143110","65.0110","163.4851","277.7592","82.1867","0","U","18187","999","73300","-0.00000009486600","-0.00000100","0.0000000000000","7166.145","100.620","798.265","777.754","PAYLOAD","LARGE","CIS","1987-07-10","TTMTR","","2818340","161080872","0 COSMOS 1867","1 18187U 87060A   20254.22381812 -.00000100  00000-0 -94866-7 0  9999","2 18187  65.0110 163.4851 0014311 277.7592  82.1867 14.31114402733003"
